DIRECTV 12              
1 36131U 09075A   17345.52374201 -.00000109  00000-0  00000+0 0  9999
2 36131   0.0275 176.2220 0000300  98.5648 251.3868  1.00269789 29201
